satname,norad_id,inclination_deg,eccentricity,mean_motion_rev_per_day,perigee_km,apogee_km,l1,l2
STARLINK-1541,46052,53.1593,0.0001878,15.76132151,340.1495116453016,342.6733740404334,1 46052U 20055AB  26129.91668981 -.00089273  00000+0 -56177-3 0  9996,2 46052  53.1593 183.3231 0001878  67.2858  30.9159 15.76132151  5886
STARLINK-1543,46053,53.1585,0.000152,15.31701684,469.69394677362743,471.7760038541228,1 46053U 20055AC  26129.86134704  .00002302  00000+0  85925-4 0  9992,2 46053  53.1585 189.5754 0001520  67.0503 293.0658 15.31701684318444
STARLINK-1548,46054,53.1588,0.0001332,15.31718211,469.77344653518776,471.59797290505776,1 46054U 20055AD  26129.87535137  .00008832  00000+0  29588-3 0  9995,2 46054  53.1588 189.5845 0001332  88.4077 271.7077 15.31718211318445
STARLINK-1554,46055,53.1582,0.0001261,15.31696685,469.8862324507718,471.6135217211722,1 46055U 20055AE  26129.85668649  .00000476  00000+0  27119-4 0  9994,2 46055  53.1582 189.6160 0001261  97.2191 262.8953 15.31696685318441
STARLINK-1564,46058,53.1587,0.0001329,15.30186479,474.3446251300129,476.1662568408274,1 46058U 20055AH  26129.88290644  .00001151  00000+0  50999-4 0  9999,2 46058  53.1587 190.1307 0001329  92.8513 267.2640 15.30186479318438
STARLINK-1570,46059,53.1598,0.0001259,15.31698911,469.88096745750136,471.60551550230684,1 46059U 20055AJ  26129.88463729  .00001358  00000+0  55514-4 0  9993,2 46059  53.1598 189.3683 0001259  91.8215 268.2931 15.31698911318409
STARLINK-1572,46060,53.1596,0.0001244,15.30189845,474.3928298171695,476.09795135594777,1 46060U 20055AK  26129.86390292  .00001437  00000+0  60667-4 0  9990,2 46060  53.1596 189.9687 0001244  99.2622 260.8520 15.30189845318409
STARLINK-1573,46061,53.1587,0.0001232,15.31698847,469.8996501915517,471.5872143300603,1 46061U 20055AL  26129.87065066  .00000338  00000+0  22673-4 0  9994,2 46061  53.1587 189.4004 0001232  89.1503 270.9640 15.31698847318448
STARLINK-1577,46063,53.1595,0.0001154,15.31706523,469.9301924097481,471.5109087324199,1 46063U 20055AN  26129.89861256  .00003306  00000+0  11824-3 0  9996,2 46063  53.1595 189.2660 0001154  69.1056 291.0069 15.31706523318449
STARLINK-1583,46064,53.1591,0.0001682,15.30196499,474.07278721786133,476.3782583705297,1 46064U 20055AP  26129.89335485  .00002751  00000+0  10499-3 0  9997,2 46064  53.1591 189.5793 0001682  75.2015 284.9173 15.30196499318435
STARLINK-1536,46070,53.1602,0.0001325,15.31695326,469.8464501638746,471.661406259851,1 46070U 20055AV  26129.45720578  .00002240  00000+0  83934-4 0  9995,2 46070  53.1602 179.2062 0001325  74.1120 286.0028 15.31695326318547
STARLINK-1542,46073,53.1505,0.0001216,15.29346072,476.93225300285303,478.599608595624,1 46073U 20055AY  26129.91668981  .00019108  00000+0  67300-3 0  9997,2 46073  53.1505 179.9784 0001216  56.7463 212.9288 15.29346072  5799
STARLINK-1549,46074,53.0492,0.0003468,15.27370371,481.2971954200566,486.05654952200166,1 46074U 20055AZ  26129.83175289  .00019419  00000+0  72593-3 0  9998,2 46074  53.0492 177.2157 0003468  20.8770 339.2369 15.27370371318587
STARLINK-1551,46075,53.1607,0.0001154,15.3019427,474.441299416706,476.02305702303966,1 46075U 20055BA  26129.41663322  .00003643  00000+0  13508-3 0  9996,2 46075  53.1607 178.9917 0001154  89.1727 270.9406 15.30194270318533
STARLINK-1552,46076,53.1583,0.0001737,15.30279446,473.78748219356476,476.1682542987928,1 46076U 20055BB  26129.62938850  .00031510  00000+0  10689-2 0  9991,2 46076  53.1583 177.9178 0001737  93.8642 266.2558 15.30279446318557
STARLINK-1559,46077,53.0229,0.0002999,15.35645893,456.95222930654836,461.05314569111033,1 46077U 20055BC  26129.46454806  .00027891  00000+0  80108-3 0  9999,2 46077  53.0229 149.6896 0002999   6.0478 354.0559 15.35645893318905
STARLINK-1566,46079,53.1593,0.0001248,15.31702222,469.8786325449064,471.58811058965057,1 46079U 20055BE  26129.83031309  .00002802  00000+0  10201-3 0  9993,2 46079  53.1593 176.8411 0001248  92.1866 267.9278 15.31702222318603
STARLINK-1568,46080,53.0588,0.0004726,15.51698316,408.5583225347209,414.9761400141215,1 46080U 20055BF  26129.91558580  .00031484  00000+0  52537-3 0  9995,2 46080  53.0588  99.6691 0004726   9.7346 350.3753 15.51698316319685
STARLINK-1578,46082,53.1593,0.0001683,15.31710206,469.55691096161445,471.8622327176945,1 46082U 20055BH  26129.83470459 -.00000538  00000+0 -55541-5 0  9994,2 46082  53.1593 177.3382 0001683  57.2568 302.8595 15.31710206318594
STARLINK-1579,46083,53.1616,0.0001152,15.31699853,469.95144274470294,471.52942410536343,1 46083U 20055BJ  26129.82099432  .00001119  00000+0  47818-4 0  9993,2 46083  53.1616 176.9380 0001152  92.1607 267.9526 15.31699853318596
STARLINK-1622,46128,53.0196,0.000359,15.76336044,338.41988866203064,343.24410840297605,1 46128U 20057M   26129.68018986  .00096687  00000+0  59806-3 0  9997,2 46128  53.0196 282.4360 0003590 333.2264  26.8569 15.76336044316940
STARLINK-1623,46129,53.0457,0.0001035,15.69173091,360.5660885669231,361.9611444945449,1 46129U 20057N   26129.81101488  .00074314  00000+0  62642-3 0  9998,2 46129  53.0457 318.1331 0001035 262.6967  97.3931 15.69173091316469
STARLINK-1624,46130,53.0314,0.0009161,15.96119743,279.09188307930526,291.30044209980224,1 46130U 20057P   26129.91668981  .00436622  88569-4  10354-2 0  9994,2 46130  53.0314 285.3613 0009161 282.7156  83.7061 15.96119743  5587
STARLINK-1596,46141,53.039,0.000304,15.5482468,400.60094786947684,404.7236738504798,1 46141U 20057AA  26129.75390445  .00066285  00000+0  97623-3 0  9993,2 46141  53.0390 297.8100 0003040 277.3941  82.6723 15.54824680316747
STARLINK-1597,46142,53.0456,0.0002372,15.68897697,360.4534806567699,363.6510264386534,1 46142U 20057AB  26129.90967251  .00068315  00000+0  58319-3 0  9991,2 46142  53.0456 357.3302 0002372  67.5563 292.5705 15.68897697315916
STARLINK-1606,46144,53.0392,0.0003645,15.79300035,329.97670522571843,334.8687032501084,1 46144U 20057AD  26129.91668981  .00126887  00000+0  68411-3 0  9995,2 46144  53.0392 313.0645 0003645 230.6829   6.9745 15.79300035  5406
STARLINK-1608,46146,53.1584,0.0001275,15.33477842,464.5729047725399,466.3180183002323,1 46146U 20057AF  26129.93531752  .00029822  00000+0  91652-3 0  9998,2 46146  53.1584  24.3983 0001275 177.2891 182.8118 15.33477842315561
STARLINK-1667,46155,53.0156,0.0005263,15.78893603,330.04188347884883,337.1066307480869,1 46155U 20057AQ  26129.68561742  .00123590  00000+0  67874-3 0  9998,2 46155  53.0156 282.4555 0005263 325.2602  34.8074 15.78893603318187
